{"type": "FeatureCollection", "features": [{"type": "Feature", "id": "3c6cb07a-9f2b-5309-834d-d4e58b8aae97", "geometry": {"type": "MultiPolygon", "coordinates": [[[[5, 5], [30, 5], [30, 25], [5, 25], [5, 5]], [[10, 20], [20, 20], [20, 10], [10, 10], [10, 20]]], [[[13, 13], [17, 13], [17, 17], [13, 17], [13, 13]]]]}, "properties": {"objectType": "annotation", "classification": {"name": "infected", "color": [248, 153, 67]}, "name": "cell 3", "isLocked": false, "object_type": "cell", "object_id": 3, "measurements": {"object_id": 3}}}, {"type": "Feature", "id": "ceda9ab4-8a51-5ea5-941d-bf4f450dc86a", "geometry": {"type": "Polygon", "coordinates": [[[0, 0], [96, 0], [96, 3], [0, 3], [0, 0]]]}, "properties": {"objectType": "annotation", "classification": {"name": "cell", "color": [167, 192, 108]}, "name": "cell 4", "isLocked": false, "object_type": "cell", "object_id": 4, "measurements": {"object_id": 4}}}, {"type": "Feature", "id": "df995ad9-d52f-5b05-bcb9-9ffc435920c0", "geometry": {"type": "Polygon", "coordinates": [[[30, 5], [45, 5], [45, 25], [30, 25], [30, 5]]]}, "properties": {"objectType": "annotation", "classification": {"name": "cell", "color": [167, 192, 108]}, "name": "cell 7", "isLocked": false, "object_type": "cell", "object_id": 7, "measurements": {"object_id": 7}}}, {"type": "Feature", "id": "544718aa-34cb-5ba0-8033-31c3b5ea4973", "geometry": {"type": "MultiPolygon", "coordinates": [[[[30, 30], [36, 30], [36, 36], [30, 36], [30, 30]]], [[[45, 45], [52, 45], [52, 50], [45, 50], [45, 45]]]]}, "properties": {"objectType": "annotation", "classification": {"name": "dividing", "color": [80, 200, 231]}, "name": "cell 9", "isLocked": false, "object_type": "cell", "object_id": 9, "measurements": {"object_id": 9}}}, {"type": "Feature", "id": "9719ba04-c923-59ca-a650-2105ff5e2250", "geometry": {"type": "MultiPolygon", "coordinates": [[[[60, 50], [61, 50], [61, 51], [60, 51], [60, 50]]], [[[61, 51], [62, 51], [62, 52], [61, 52], [61, 51]]], [[[60, 52], [61, 52], [61, 53], [60, 53], [60, 52]]]]}, "properties": {"objectType": "annotation", "classification": {"name": "cell", "color": [167, 192, 108]}, "name": "cell 12", "isLocked": false, "object_type": "cell", "object_id": 12, "measurements": {"object_id": 12}}}, {"type": "Feature", "id": "2ccd6a33-c560-5a0d-b4ad-74c1fa59eb39", "geometry": {"type": "Polygon", "coordinates": [[[5, 40], [14, 40], [14, 41], [15, 41], [15, 48], [5, 48], [5, 40]], [[14, 41], [13, 41], [13, 42], [14, 42], [14, 41]]]}, "properties": {"objectType": "annotation", "classification": {"name": "cell", "color": [167, 192, 108]}, "name": "cell 20", "isLocked": false, "object_type": "cell", "object_id": 20, "measurements": {"object_id": 20}}}, {"type": "Feature", "id": "0c8e5711-c570-5551-9559-06fd933a49c6", "geometry": {"type": "Polygon", "coordinates": [[[90, 60], [96, 60], [96, 64], [90, 64], [90, 60]]]}, "properties": {"objectType": "annotation", "classification": {"name": "cell", "color": [167, 192, 108]}, "name": "cell 65535", "isLocked": false, "object_type": "cell", "object_id": 65535, "measurements": {"object_id": 65535}}}, {"type": "Feature", "id": "ac1299ad-7f80-5df1-9b9a-ebc2aa59f3fd", "geometry": {"type": "Polygon", "coordinates": [[[30, 5], [45, 5], [45, 25], [30, 25], [30, 5]]]}, "properties": {"objectType": "annotation", "classification": {"name": "nucleus", "color": [230, 74, 180]}, "name": "nucleus 2", "isLocked": false, "object_type": "nucleus", "object_id": 2, "measurements": {"object_id": 2}}}]}